[{"OBJECT_NAME":"ZACUBE-1 (TSHEPISOSAT)","OBJECT_ID":"2013-066B","EPOCH":"2026-03-09T22:19:27.469056","MEAN_MOTION":15.00329659,"ECCENTRICITY":0.00425262,"INCLINATION":97.8171,"RA_OF_ASC_NODE":30.7553,"ARG_OF_PERICENTER":219.1599,"MEAN_ANOMALY":140.6545,"EPHEMERIS_TYPE":0,"CLASSIFICATION_TYPE":"U","NORAD_CAT_ID":39417,"ELEMENT_SET_NO":999,"REV_AT_EPOCH":66584,"BSTAR":0.00042975473,"MEAN_MOTION_DOT":5.431e-5,"MEAN_MOTION_DDOT":0},{"OBJECT_NAME":"STARLINK-34725","OBJECT_ID":"2025-152B","EPOCH":"2026-03-09T14:37:42.633408","MEAN_MOTION":15.05656146,"ECCENTRICITY":0.0002655,"INCLINATION":97.6021,"RA_OF_ASC_NODE":285.4073,"ARG_OF_PERICENTER":81.3772,"MEAN_ANOMALY":278.7755,"EPHEMERIS_TYPE":0,"CLASSIFICATION_TYPE":"U","NORAD_CAT_ID":64843,"ELEMENT_SET_NO":999,"REV_AT_EPOCH":3540,"BSTAR":0.00057169,"MEAN_MOTION_DOT":8.199e-5,"MEAN_MOTION_DDOT":0}]
